STARLINK-37645          
1 69371U 26123U   26165.58335648 -.02071713  00000+0 -90961-2 0  9991
2 69371  53.1566 254.3718 0001043  72.3462 180.5307 15.86937879  2780
STARLINK-37688          
1 69372U 26123V   26165.58335648 -.02071068  00000+0 -94142-2 0  9990
2 69372  53.1563 254.3335 0000856  64.4415 206.5612 15.86241059  2780
STARLINK-37685          
1 69373U 26123W   26165.58335648 -.02159656  00000+0 -99348-2 0  9994
2 69373  53.1564 254.3261 0001104  85.0997 189.4345 15.86142245  2780
STARLINK-37632          
1 69374U 26123X   26165.58335648 -.01953589  00000+0 -88389-2 0  9994
2 69374  53.1561 254.3189 0000916  64.9939 213.0815 15.86146684  2731
STARLINK-37454          
1 69375U 26123Y   26165.58335648 -.02134443  00000+0 -97924-2 0  9991
2 69375  53.1562 254.3044 0000966  62.5934 222.2475 15.86156643  2872
STARLINK-37485          
1 69376U 26123Z   26165.58335648 -.02128720  00000+0 -97672-2 0  9993
2 69376  53.1563 254.2954 0000832  58.5160 230.5813 15.86146917  2872
STARLINK-37439          
1 69377U 26123AA  26165.58335648 -.02162668  00000+0 -91185-2 0  9996
2 69377  53.1555 254.2274 0000784  71.1849 250.4694 15.87895669  2739
STARLINK-37376          
1 69378U 26123AB  26165.58335648 -.02132971  00000+0 -93611-2 0  9997
2 69378  53.1558 254.2492 0000827  64.2838 246.7720 15.87048248  2870
STARLINK-37383          
1 69379U 26123AC  26165.58335648 -.02168420  00000+0 -92015-2 0  9993
2 69379  53.1551 254.1834 0000750  67.1738 275.2310 15.87778522  2876
STARLINK-37411          
1 69380U 26123AD  26165.58335648 -.02157884  00000+0 -94944-2 0  9990
2 69380  53.1558 254.2339 0000833  62.4033 255.7033 15.87038298  2878
STARLINK-37427          
1 69381U 26123AE  26165.58335648 -.02110432  00000+0 -88257-2 0  9999
2 69381  53.1555 254.1963 0000845  67.3904 268.9253 15.87973221  2786
QIANFAN-165             
1 69382U 26124A   26164.79833279  .00000097  00000+0  37879-4 0  9993
2 69382  88.9991   2.4245 0002400 151.4164 208.7159 14.21216415  1335
QIANFAN-166             
1 69383U 26124B   26165.07811851  .00000093  00000+0  36440-4 0  9997
2 69383  89.0014   2.3807 0002134 113.5942 246.5473 14.20451886  1379
QIANFAN-167             
1 69384U 26124C   26164.93664244  .00000096  00000+0  37433-4 0  9990
2 69384  88.9952   2.4146 0006337 194.5230 165.5780 14.21105494  1355
QIANFAN-168             
1 69385U 26124D   26164.93551425  .00000097  00000+0  37407-4 0  9999
2 69385  89.0066   2.3643 0002313 140.1786 219.9575 14.21872881  1355
QIANFAN-169             
1 69386U 26124E   26165.07536333  .00000095  00000+0  36067-4 0  9996
2 69386  89.0015   2.3915 0001033 310.2027  49.9074 14.22762892  1376
QIANFAN-170             
1 69387U 26124F   26165.07434800  .00000096  00000+0  36120-4 0  9994
2 69387  88.9994   2.3837 0002252 116.5235 243.6188 14.23171609  1376
QIANFAN-171             
1 69388U 26124G   26164.79100397 -.01724011  00000+0 -86631+0 0  9994
2 69388  88.9981   2.4235 0022197 187.5923 172.4935 14.20530017  1332
QIANFAN-172             
1 69389U 26124H   26164.85713411 -.01443543  00000+0 -61077+0 0  9994
2 69389  88.9977   2.4156 0003179 174.9675 185.1552 14.29008880  1347
QIANFAN-173             
1 69390U 26124J   26164.93278677  .00000100  00000+0  36702-4 0  9992
2 69390  89.0007   2.4092 0002162 158.8999 201.2283 14.24972369  1354
QIANFAN-174             
1 69391U 26124K   26165.00260734  .00000102  00000+0  36818-4 0  9997
2 69391  88.9983   2.3990 0002366 170.0899 190.0341 14.25618199  1363
QIANFAN-175             
1 69392U 26124L   26165.07272091  .00000101  00000+0  36310-4 0  9990
2 69392  88.9984   2.3909 0002750 177.2611 182.8598 14.25625629  1373
QIANFAN-176             
1 69393U 26124M   26165.56387192  .00000096  00000+0  34172-4 0  9991
2 69393  88.9983   2.3346 0001918 175.5946 184.5265 14.25634354  1448
QIANFAN-177             
1 69394U 26124N   26165.49318856  .00000023  00000+0  35781-5 0  9993
2 69394  88.9981   2.3424 0002923 161.1183 199.0119 14.25688564  1435
QIANFAN-178             
1 69395U 26124P   26165.56352123  .00000072  00000+0  24178-4 0  9998
2 69395  88.9983   2.3345 0002328 166.2730 193.8527 14.25625895  1447
QIANFAN-179             
1 69396U 26124Q   26164.86006002 -.01971323  00000+0 -94572+0 0  9992
2 69396  88.9978   2.4153 0004352 107.3109 252.8559 14.22997940  1345
QIANFAN-180             
1 69397U 26124R   26165.00131773  .00000103  00000+0  36823-4 0  9990
2 69397  88.9984   2.3989 0002341 170.3819 189.7420 14.26489166  1360
QIANFAN-181             
1 69398U 26124S   26165.15061606  .00000093  00000+0  36215-4 0  9997
2 69398  88.9983   2.3842 0002118 140.0514 220.0833 14.21115081  1382
QIANFAN-182             
1 69399U 26124T   26164.79367052  .00000100  00000+0  37156-4 0  9995
2 69399  88.9961   2.4186 0003044 159.9795 200.1517 14.24123720  1335
